{
"type": "FeatureCollection",
"name": "gadm41_MAC_1",
"crs": { "type": "name", "properties": { "name": "urn:ogc:def:crs:OGC:1.3:CRS84" } },
"features": [
{ "type": "Feature", "properties": { "GID_1": "CHN.MAC", "GID_0": "CHN", "COUNTRY": "China", "NAME_1": "Macau", "VARNAME_1": "NA", "NL_NAME_1": "NA", "TYPE_1": "Special Administrative Region", "ENGTYPE_1": "Special Administrative Region", "CC_1": "NA", "HASC_1": "MO", "ISO_1": "NA" }, "geometry": { "type": "MultiPolygon", "coordinates": [ [ [ [ 113.577362061000031, 22.139032364000059 ], [ 113.577636719000338, 22.139310837000096 ], [ 113.577919007000105, 22.139583588000164 ], [ 113.579261780000024, 22.140844346000051 ], [ 113.581451415000174, 22.142320633000054 ], [ 113.583351134000054, 22.14303398200019 ], [ 113.583686828000054, 22.142747878000137 ], [ 113.582733155000142, 22.141130446999966 ], [ 113.581687926000086, 22.13984489500001 ], [ 113.580139161000147, 22.138471603000085 ], [ 113.580696105000015, 22.138471603000085 ], [ 113.580696105000015, 22.13708305300014 ], [ 113.580970765000188, 22.13708305300014 ], [ 113.580970765000188, 22.136808395000116 ], [ 113.580696105000015, 22.136802674000137 ], [ 113.580696105000015, 22.135694505000174 ], [ 113.580970765000188, 22.135694505000174 ], [ 113.580970765000188, 22.135416032000137 ], [ 113.581802369000229, 22.135416032000137 ], [ 113.581802369000229, 22.135971070000039 ], [ 113.582077027000082, 22.135971070000039 ], [ 113.582077027000082, 22.136251449000042 ], [ 113.582641601000205, 22.136251449000042 ], [ 113.582641601000205, 22.136529922000079 ], [ 113.583190919000231, 22.136529922000079 ], [ 113.583190919000231, 22.134862899000098 ], [ 113.584030151000206, 22.134862899000098 ], [ 113.584030151000206, 22.135141372000135 ], [ 113.584297181000011, 22.135131836000085 ], [ 113.584297181000011, 22.135419845000172 ], [ 113.584587097000053, 22.135419845000172 ], [ 113.584587097000053, 22.134862899000098 ], [ 113.585418701000094, 22.134862899000098 ], [ 113.585418701000094, 22.135141372000135 ], [ 113.585693359000288, 22.135131836000085 ], [ 113.585693359000288, 22.135419845000172 ], [ 113.585975647000055, 22.135416032000137 ], [ 113.585975647000055, 22.135694505000174 ], [ 113.586807251000096, 22.135694505000174 ], [ 113.586807251000096, 22.135141372000135 ], [ 113.58736419700017, 22.135141372000135 ], [ 113.58736419700017, 22.134584428000096 ], [ 113.587913513000103, 22.134584428000096 ], [ 113.587913513000103, 22.135141372000135 ], [ 113.588195801000211, 22.135131836000085 ], [ 113.588195801000211, 22.135419845000172 ], [ 113.588470459000064, 22.135419845000172 ], [ 113.588470459000064, 22.135131836000085 ], [ 113.588752747000285, 22.135141372000135 ], [ 113.588752747000285, 22.134584428000096 ], [ 113.589302063000105, 22.134584428000096 ], [ 113.589302063000105, 22.135141372000135 ], [ 113.589859009000179, 22.135131836000085 ], [ 113.589859009000179, 22.135419845000172 ], [ 113.590415955000026, 22.135419845000172 ], [ 113.590415955000026, 22.135131836000085 ], [ 113.590698241000155, 22.135141372000135 ], [ 113.590698241000155, 22.134584428000096 ], [ 113.5909729010001, 22.134584428000096 ], [ 113.5909729010001, 22.132085801000187 ], [ 113.591529845000082, 22.132085801000187 ], [ 113.591529845000082, 22.13180732800015 ], [ 113.591796875000114, 22.131809235000048 ], [ 113.591796875000114, 22.131532670000183 ], [ 113.592086791000156, 22.131532670000183 ], [ 113.592086791000156, 22.130971909000039 ], [ 113.592361451000102, 22.130971909000039 ], [ 113.592361451000102, 22.130140305000168 ], [ 113.592636109000068, 22.130140305000168 ], [ 113.592636109000068, 22.128751755 ], [ 113.592086791000156, 22.128751755 ], [ 113.592086791000156, 22.128469467000116 ], [ 113.591529845000082, 22.128473282000186 ], [ 113.591529845000082, 22.128196716 ], [ 113.5909729010001, 22.128196716 ], [ 113.5909729010001, 22.127916336000112 ], [ 113.59052276500006, 22.127916336000112 ], [ 113.590141297000059, 22.127916336000112 ], [ 113.590141297000059, 22.127698898000062 ], [ 113.590141297000059, 22.127361297000107 ], [ 113.589859009000179, 22.127363205000051 ], [ 113.589859009000179, 22.126527786000111 ], [ 113.588470459000064, 22.126531601000181 ], [ 113.588470459000064, 22.126810074000048 ], [ 113.588195801000211, 22.126804351000033 ], [ 113.588195801000211, 22.126985549999972 ], [ 113.588195801000211, 22.12708282400007 ], [ 113.587913513000103, 22.127086639000083 ], [ 113.587913513000103, 22.127363205000051 ], [ 113.585693359000288, 22.127363205000051 ], [ 113.585693359000288, 22.127086639000083 ], [ 113.585136413000214, 22.127086639000083 ], [ 113.585136413000214, 22.126804351000033 ], [ 113.58486175500002, 22.126804351000033 ], [ 113.58486175500002, 22.126527786000111 ], [ 113.583473205000132, 22.126527786000111 ], [ 113.583473205000132, 22.126249313000073 ], [ 113.582641601000205, 22.126249313000073 ], [ 113.582641601000205, 22.125976562000176 ], [ 113.582359313000097, 22.125976562000176 ], [ 113.582359313000097, 22.125417709000033 ], [ 113.582084655000131, 22.125417709000033 ], [ 113.582084655000131, 22.125139236000166 ], [ 113.581802369000229, 22.125139236000166 ], [ 113.581802369000229, 22.124860763000129 ], [ 113.581527709000056, 22.124860763000129 ], [ 113.581542969000111, 22.124549866000052 ], [ 113.58125305100009, 22.124584197000161 ], [ 113.58125305100009, 22.12444114800013 ], [ 113.58125305100009, 22.124027253000065 ], [ 113.580696105000015, 22.124034881000171 ], [ 113.580696105000015, 22.12375068800003 ], [ 113.5804061890002, 22.12375068800003 ], [ 113.5804061890002, 22.123191834000181 ], [ 113.578750611000146, 22.123191834000181 ], [ 113.578735351000091, 22.123519897000051 ], [ 113.578475953000179, 22.123472215000163 ], [ 113.578475953000179, 22.12375068800003 ], [ 113.577362061000031, 22.12375068800003 ], [ 113.577362061000031, 22.124029159000088 ], [ 113.577079773000264, 22.124029159000088 ], [ 113.577079773000264, 22.124307632000125 ], [ 113.576248169000223, 22.124307632000125 ], [ 113.576248169000223, 22.124584197000161 ], [ 113.575973511000029, 22.124584197000161 ], [ 113.575973511000029, 22.124860763000129 ], [ 113.575691223000149, 22.124860763000129 ], [ 113.575691223000149, 22.125139236000166 ], [ 113.575416565000182, 22.125139236000166 ], [ 113.575416565000182, 22.125417709000033 ], [ 113.574302673000034, 22.125417709000033 ], [ 113.574302673000034, 22.125139236000166 ], [ 113.574028015000181, 22.125139236000166 ], [ 113.574028015000181, 22.124860763000129 ], [ 113.573753357000214, 22.124860763000129 ], [ 113.573753357000214, 22.124584197000161 ], [ 113.573471069000107, 22.124584197000161 ], [ 113.573471069000107, 22.124029159000088 ], [ 113.57319641100014, 22.124029159000088 ], [ 113.57319641100014, 22.12375068800003 ], [ 113.572914123000032, 22.12375068800003 ], [ 113.572914123000032, 22.123193742000126 ], [ 113.572364807000099, 22.123193742000126 ], [ 113.572364807000099, 22.122919084000159 ], [ 113.571250915000064, 22.122919084000159 ], [ 113.571250915000064, 22.122362138000085 ], [ 113.570968629000049, 22.122362138000085 ], [ 113.570968629000049, 22.121250153000176 ], [ 113.570419311000023, 22.121250153000176 ], [ 113.570419311000023, 22.120138169000029 ], [ 113.570137025000122, 22.120138169000029 ], [ 113.570137025000122, 22.119028092000065 ], [ 113.569862365000176, 22.119028092000065 ], [ 113.569862365000176, 22.11763954200012 ], [ 113.569580079000048, 22.11763954200012 ], [ 113.569580079000048, 22.117082596000046 ], [ 113.569862365000176, 22.117082596000046 ], [ 113.569862365000176, 22.116809845000148 ], [ 113.570419311000023, 22.116809845000148 ], [ 113.570419311000023, 22.116529465000042 ], [ 113.570693969000217, 22.116529465000042 ], [ 113.570693969000217, 22.116250992000175 ], [ 113.571807861000025, 22.116250992000175 ], [ 113.571807861000025, 22.116809845000148 ], [ 113.572082519000332, 22.116809845000148 ], [ 113.572082519000332, 22.116529465000042 ], [ 113.572364807000099, 22.116529465000042 ], [ 113.572364807000099, 22.116250992000175 ], [ 113.572654723000028, 22.116250992000175 ], [ 113.572906495000097, 22.116250992000175 ], [ 113.572906495000097, 22.116529465000042 ], [ 113.573753357000214, 22.116529465000042 ], [ 113.573753357000214, 22.115972519000138 ], [ 113.574028015000181, 22.115972519000138 ], [ 113.574028015000181, 22.11514091500004 ], [ 113.574302673000034, 22.11514091500004 ], [ 113.574302673000034, 22.114030838000133 ], [ 113.574577331000341, 22.114030838000133 ], [ 113.574577331000341, 22.113470079000024 ], [ 113.574028015000181, 22.113475799000128 ], [ 113.574028015000181, 22.11319732600009 ], [ 113.573471069000107, 22.11319732600009 ], [ 113.573471069000107, 22.112916946000155 ], [ 113.57319641100014, 22.112920761000055 ], [ 113.57319641100014, 22.112642288000188 ], [ 113.572906495000097, 22.112642288000188 ], [ 113.572906495000097, 22.112360002000116 ], [ 113.572364807000099, 22.11236572200005 ], [ 113.572364807000099, 22.112083436000148 ], [ 113.571525573000258, 22.112083436000148 ], [ 113.571525573000258, 22.111806871000056 ], [ 113.570968629000049, 22.111806871000056 ], [ 113.570968629000049, 22.111528398000019 ], [ 113.570686341000055, 22.11153221100011 ], [ 113.570686341000055, 22.111249924999981 ], [ 113.570419311000023, 22.111249924999981 ], [ 113.570419311000023, 22.110971452000115 ], [ 113.569862365000176, 22.110961914000086 ], [ 113.569862365000176, 22.111249924999981 ], [ 113.569580079000048, 22.111249924999981 ], [ 113.569580079000048, 22.11153221100011 ], [ 113.569030761000249, 22.111528398000019 ], [ 113.569030761000249, 22.111806871000056 ], [ 113.567359925, 22.111806871000056 ], [ 113.567359925, 22.111249924999981 ], [ 113.567085267000039, 22.111249924999981 ], [ 113.567085267000039, 22.111806871000056 ], [ 113.561805725000227, 22.111803056000042 ], [ 113.561805725000227, 22.112083436000148 ], [ 113.561546325000222, 22.112083436000148 ], [ 113.561531067000033, 22.112916946000155 ], [ 113.561248779000152, 22.112916946000155 ], [ 113.561248779000152, 22.11319732600009 ], [ 113.560417175000225, 22.11319732600009 ], [ 113.560417175000225, 22.112916946000155 ], [ 113.559860229000151, 22.112916946000155 ], [ 113.559860229000151, 22.112638475000153 ], [ 113.559303285000055, 22.112638475000153 ], [ 113.559303285000055, 22.11236572200005 ], [ 113.558746339000209, 22.11236572200005 ], [ 113.558746339000209, 22.112083436000148 ], [ 113.558471681000015, 22.112083436000148 ], [ 113.558471681000015, 22.111806871000056 ], [ 113.558197021000069, 22.111806871000056 ], [ 113.558197021000069, 22.111558914000057 ], [ 113.557914735000168, 22.111528398000019 ], [ 113.557914735000168, 22.110971452000115 ], [ 113.557640077000315, 22.110971452000115 ], [ 113.557640077000315, 22.110696794000148 ], [ 113.557357789000093, 22.110696794000148 ], [ 113.557357789000093, 22.10958290200017 ], [ 113.556808473000046, 22.10958290200017 ], [ 113.556808473000046, 22.109308244000033 ], [ 113.556526185000166, 22.109312057000068 ], [ 113.556526185000166, 22.109029771000166 ], [ 113.5562515270002, 22.109029771000166 ], [ 113.5562515270002, 22.109312057000068 ], [ 113.555694581000125, 22.109308244000033 ], [ 113.555694581000125, 22.10958290200017 ], [ 113.55458068900009, 22.10958290200017 ], [ 113.55458068900009, 22.109861375000037 ], [ 113.553749085000049, 22.109861375000037 ], [ 113.553749085000049, 22.110139848000074 ], [ 113.553466796000066, 22.110139848000074 ], [ 113.553466796000066, 22.110422134000146 ], [ 113.552917481, 22.110418321000111 ], [ 113.552917481, 22.110696794000148 ], [ 113.552635192000025, 22.110694885999976 ], [ 113.552635192000025, 22.110843658000022 ], [ 113.552635192000025, 22.110971452000115 ], [ 113.551528931, 22.110971452000115 ], [ 113.551528931, 22.111249924999981 ], [ 113.551109313000325, 22.111249924999981 ], [ 113.55041503800021, 22.111249924999981 ], [ 113.55041503800021, 22.111806871000056 ], [ 113.550140381000119, 22.111806871000056 ], [ 113.550140381000119, 22.11236572200005 ], [ 113.549858092000136, 22.11236572200005 ], [ 113.549858092000136, 22.11319732600009 ], [ 113.549308777000078, 22.11319732600009 ], [ 113.549308777000078, 22.113475799000128 ], [ 113.549026488000209, 22.113470079000024 ], [ 113.549026488000209, 22.114320756000154 ], [ 113.549308777000078, 22.114305496000156 ], [ 113.549308777000078, 22.114585876000035 ], [ 113.549575806, 22.114580156000102 ], [ 113.549575806, 22.114862442 ], [ 113.549858092000136, 22.114860534000059 ], [ 113.549858092000136, 22.115137100000027 ], [ 113.550140381000119, 22.11514091500004 ], [ 113.550140381000119, 22.115694046000101 ], [ 113.55041503800021, 22.115694046000101 ], [ 113.55041503800021, 22.115972519000138 ], [ 113.550697327000194, 22.115972519000138 ], [ 113.550697327000194, 22.11763954200012 ], [ 113.55041503800021, 22.11763954200012 ], [ 113.55041503800021, 22.117914200000087 ], [ 113.55041503800021, 22.118194580000022 ], [ 113.550140381000119, 22.118194580000022 ], [ 113.550140381000119, 22.118473053000059 ], [ 113.549583435000045, 22.118473053000059 ], [ 113.549583435000045, 22.119304657000157 ], [ 113.549858092000136, 22.119300842000087 ], [ 113.549858092000136, 22.12042045700008 ], [ 113.549575806, 22.12042045700008 ], [ 113.549575806, 22.121250153000176 ], [ 113.550422669000227, 22.121250153000176 ], [ 113.550422669000227, 22.121530533999987 ], [ 113.55097198500016, 22.121530533999987 ], [ 113.55097198500016, 22.121812820000116 ], [ 113.551246642000024, 22.121805192000181 ], [ 113.551246642000024, 22.124006272000031 ], [ 113.551246642000024, 22.124582292000071 ], [ 113.551528931, 22.124580384000126 ], [ 113.551528931, 22.127540588000102 ], [ 113.551063538000221, 22.128402711000092 ], [ 113.550216674000126, 22.129066467000143 ], [ 113.550338745000204, 22.130636216000084 ], [ 113.551307678000171, 22.131299972000079 ], [ 113.551002503000063, 22.134136200000114 ], [ 113.550399780000021, 22.136249541999973 ], [ 113.550277710000046, 22.139810563000026 ], [ 113.548851000000127, 22.139933 ], [ 113.548851000000127, 22.139950000000113 ], [ 113.548855616000083, 22.140096933999985 ], [ 113.548857000000226, 22.140141 ], [ 113.548858875000064, 22.140211008000051 ], [ 113.550338745000204, 22.140113830000189 ], [ 113.550277710000046, 22.142768859 ], [ 113.549858092000136, 22.146251680000148 ], [ 113.549858092000136, 22.146804810999981 ], [ 113.549583435000045, 22.146804810999981 ], [ 113.549583435000045, 22.147083284000018 ], [ 113.549308777000078, 22.147083284000018 ], [ 113.549308777000078, 22.147361755000077 ], [ 113.549026488000209, 22.147361755000077 ], [ 113.549026488000209, 22.147640228000114 ], [ 113.548751831000118, 22.147640228000114 ], [ 113.548751831000118, 22.148063660000162 ], [ 113.548751831000118, 22.1482028960001 ], [ 113.548469544000113, 22.148195266000187 ], [ 113.548469544000113, 22.148471832000155 ], [ 113.548187256, 22.148471832000155 ], [ 113.548187256, 22.148750305000192 ], [ 113.547920227000077, 22.148750305000192 ], [ 113.547920227000077, 22.149311066000166 ], [ 113.547637938000094, 22.149305343000151 ], [ 113.547637938000094, 22.149583816000188 ], [ 113.547363281000344, 22.149581909000119 ], [ 113.547363281000344, 22.149860382000156 ], [ 113.547080994000225, 22.149860382000156 ], [ 113.547080994000225, 22.150421143000074 ], [ 113.546806334000053, 22.150417328 ], [ 113.546806334000053, 22.150693893000096 ], [ 113.54651641800001, 22.150690078000025 ], [ 113.54651641800001, 22.15125083900017 ], [ 113.545967102000077, 22.15125083900017 ], [ 113.545967102000077, 22.151531219999981 ], [ 113.545692444000224, 22.151531219999981 ], [ 113.545692444000224, 22.151809693000018 ], [ 113.54541778600003, 22.151805878000175 ], [ 113.54541778600003, 22.15208244300004 ], [ 113.54513549800015, 22.15208244300004 ], [ 113.545143127000188, 22.152639389000115 ], [ 113.544860840000183, 22.152639389000115 ], [ 113.544860840000183, 22.152919770000153 ], [ 113.544296264000195, 22.152919770000153 ], [ 113.544296264000195, 22.153200150000089 ], [ 113.543746948000035, 22.15319442800012 ], [ 113.543746948000035, 22.153472901000157 ], [ 113.543190002000074, 22.153470992999985 ], [ 113.543190002000074, 22.153692246000105 ], [ 113.543029785000044, 22.153724670000145 ], [ 113.542526246000079, 22.154426575 ], [ 113.541603088000102, 22.15558242700007 ], [ 113.541069030000131, 22.156888961 ], [ 113.54029083200021, 22.159225463000041 ], [ 113.539642334000064, 22.16211319100006 ], [ 113.5393905640002, 22.16417312699997 ], [ 113.539016724000135, 22.165880204000075 ], [ 113.539146423000147, 22.166011811000089 ], [ 113.535552979000158, 22.172883988000137 ], [ 113.535972594000327, 22.173164368000073 ], [ 113.539489746000186, 22.166107178000061 ], [ 113.539688111000032, 22.166055680000056 ], [ 113.540069581000125, 22.165327071999968 ], [ 113.540672302000189, 22.164072037000153 ], [ 113.541175843000019, 22.163269043000128 ], [ 113.541732789000093, 22.163024903000178 ], [ 113.541877746000068, 22.163419724000107 ], [ 113.542633056000227, 22.163921356 ], [ 113.543510437000236, 22.164197921000095 ], [ 113.54499053900031, 22.164299011000082 ], [ 113.54574585000023, 22.164373399000056 ], [ 113.546897888000103, 22.16454887500015 ], [ 113.547637938000094, 22.164621353000143 ], [ 113.547637938000094, 22.164861679000126 ], [ 113.547920227000077, 22.164859772000057 ], [ 113.547920227000077, 22.165140152000163 ], [ 113.548469544000113, 22.165140152000163 ], [ 113.548469544000113, 22.165430069000081 ], [ 113.548622132000105, 22.165430069000081 ], [ 113.546783448000042, 22.173496247000116 ], [ 113.546730041000046, 22.173721314000147 ], [ 113.544799805000025, 22.180591584000183 ], [ 113.541023253000162, 22.17993927100008 ], [ 113.538085938000222, 22.179548263000072 ], [ 113.533134461000031, 22.179286958000034 ], [ 113.535903931000234, 22.173353195000175 ], [ 113.535461425000221, 22.173065186000031 ], [ 113.532188416000054, 22.179330825000022 ], [ 113.531486511000139, 22.179416657000047 ], [ 113.531478881000226, 22.179996491000054 ], [ 113.5308609020002, 22.180353165000042 ], [ 113.530532837000123, 22.180706024000017 ], [ 113.529884339000091, 22.181276321000041 ], [ 113.529731751000099, 22.181661607000137 ], [ 113.529472352000198, 22.182090759000118 ], [ 113.52905273500005, 22.182985306000148 ], [ 113.528755188000218, 22.18433761700004 ], [ 113.529266357000097, 22.185918809000157 ], [ 113.530334472000163, 22.187107087000072 ], [ 113.530136108000079, 22.188148498000146 ], [ 113.530921935000151, 22.189126969000029 ], [ 113.533073426000101, 22.191602707000072 ], [ 113.535026550000225, 22.194860458000051 ], [ 113.53534698500016, 22.196685791000164 ], [ 113.535415650000118, 22.197071076000157 ], [ 113.535545349000017, 22.197793960000126 ], [ 113.536201477000191, 22.199096679000149 ], [ 113.53672027600021, 22.201766969000118 ], [ 113.537498473000028, 22.20483017000015 ], [ 113.537277222000057, 22.205345154000156 ], [ 113.537048340000183, 22.205873489000055 ], [ 113.537048340000183, 22.206523895000089 ], [ 113.541603088000102, 22.207828522999989 ], [ 113.541152954000154, 22.210563660999981 ], [ 113.540039062, 22.210172653000143 ], [ 113.540039062, 22.20886993400012 ], [ 113.535415650000118, 22.207241057999966 ], [ 113.535072000000241, 22.206390000000113 ], [ 113.533241, 22.211571000000106 ], [ 113.533190809000075, 22.211861643000134 ], [ 113.533112, 22.212318 ], [ 113.533237657000086, 22.212447247000057 ], [ 113.5332870000002, 22.212498 ], [ 113.533520819000046, 22.212740036000071 ], [ 113.5336, 22.212822 ], [ 113.533872572000291, 22.21301207800019 ], [ 113.534393267000155, 22.213375063000115 ], [ 113.53569, 22.213682000000176 ], [ 113.53695851100008, 22.213671737000141 ], [ 113.537544250000337, 22.213666916000022 ], [ 113.537811192000049, 22.213628335000067 ], [ 113.539009, 22.213455 ], [ 113.540436000000113, 22.213211000000115 ], [ 113.540479678000224, 22.213204953000059 ], [ 113.541244850000112, 22.213099021000176 ], [ 113.541406801000107, 22.213331683000035 ], [ 113.541786000000116, 22.213877000000139 ], [ 113.542309716000091, 22.215011412000024 ], [ 113.542641000000117, 22.215729 ], [ 113.543343000000164, 22.216606000000183 ], [ 113.543735811000033, 22.216805775000068 ], [ 113.544334, 22.217110000000105 ], [ 113.54560089000006, 22.217174531000069 ], [ 113.547142000000122, 22.216963 ], [ 113.548553, 22.216963 ], [ 113.549835000000144, 22.217110000000105 ], [ 113.551049569000043, 22.216966941000123 ], [ 113.550962865000088, 22.215510321000181 ], [ 113.551803589000087, 22.215139390000161 ], [ 113.552360535000162, 22.215139390000161 ], [ 113.552360535000162, 22.21486282300009 ], [ 113.552917481, 22.21486282300009 ], [ 113.552917481, 22.214582444000087 ], [ 113.553192139000203, 22.214582444000087 ], [ 113.553192139000203, 22.214305879 ], [ 113.554031373000157, 22.214309692000086 ], [ 113.554031373000157, 22.214031219000049 ], [ 113.55458068900009, 22.214031219000049 ], [ 113.55458068900009, 22.213750839999989 ], [ 113.555686950000108, 22.213750839999989 ], [ 113.555686950000108, 22.213481903000059 ], [ 113.556526185000166, 22.213481903000059 ], [ 113.556526185000166, 22.213188172000173 ], [ 113.557357789000093, 22.213193894000142 ], [ 113.557357789000093, 22.212917329000049 ], [ 113.558746339000209, 22.212919236000118 ], [ 113.558746339000209, 22.212640763000081 ], [ 113.559593201000098, 22.212640763000081 ], [ 113.559593201000098, 22.21235847500003 ], [ 113.559860229000151, 22.21235847500003 ], [ 113.559860229000151, 22.21180915900004 ], [ 113.560417175000225, 22.21180915900004 ], [ 113.560417175000225, 22.211579889000063 ], [ 113.560417175000225, 22.211539640000183 ], [ 113.560417175000225, 22.210969925000029 ], [ 113.560691833000078, 22.210971833000031 ], [ 113.560691833000078, 22.209583283000086 ], [ 113.560974121000299, 22.209583283000086 ], [ 113.560974121000299, 22.208749771000043 ], [ 113.561164857000108, 22.208749771000043 ], [ 113.561111450000226, 22.206150054000148 ], [ 113.56111908000014, 22.206018448000066 ], [ 113.561065675000236, 22.205326081000067 ], [ 113.561408996000182, 22.204139710000049 ], [ 113.561935425000115, 22.202276230000052 ], [ 113.56233215400016, 22.200971604000131 ], [ 113.562362671000074, 22.200878144 ], [ 113.562675476000095, 22.199872970000172 ], [ 113.56263732900004, 22.199724198000126 ], [ 113.56263732900004, 22.199636459000033 ], [ 113.562805176000211, 22.19951057500009 ], [ 113.563316345000089, 22.198020936000034 ], [ 113.563575745000094, 22.185804368000163 ], [ 113.563575745000094, 22.180654527000115 ], [ 113.56320953300019, 22.180660247000048 ], [ 113.562782288000108, 22.198640823000119 ], [ 113.561874390000071, 22.199291229999972 ], [ 113.561218262000011, 22.198574067000095 ], [ 113.559722900000111, 22.195968627000127 ], [ 113.557182313000112, 22.197467805000031 ], [ 113.556396484000174, 22.19622993400003 ], [ 113.557312012000125, 22.195707322000089 ], [ 113.556655883000076, 22.194210052000017 ], [ 113.557441712000013, 22.192514420000066 ], [ 113.558677673000034, 22.190038682000022 ], [ 113.557960510000271, 22.188409805 ], [ 113.558876037000118, 22.187301636000086 ], [ 113.557960510000271, 22.186325072999978 ], [ 113.556396484000174, 22.185478211000088 ], [ 113.556068421000305, 22.186586380000051 ], [ 113.555419923000159, 22.187433242000111 ], [ 113.551834107000104, 22.185869217000118 ], [ 113.551185607000093, 22.182676317000073 ], [ 113.548904420000099, 22.181568145000028 ], [ 113.545448303000171, 22.180591584000183 ], [ 113.547004699000013, 22.173761368999976 ], [ 113.547088623000036, 22.173395157000073 ], [ 113.548965453000051, 22.165430069000081 ], [ 113.549858092000136, 22.165430069000081 ], [ 113.549858092000136, 22.165700914000183 ], [ 113.551528931, 22.165693283000167 ], [ 113.551528931, 22.165971756000033 ], [ 113.551795960000049, 22.165969849000135 ], [ 113.551795960000049, 22.16625022900007 ], [ 113.553749085000049, 22.16625022900007 ], [ 113.553749085000049, 22.165969849000135 ], [ 113.55458068900009, 22.165971756000033 ], [ 113.55458068900009, 22.165416718000131 ], [ 113.555419923000159, 22.165416718000131 ], [ 113.555419923000159, 22.165971756000033 ], [ 113.555969239000092, 22.165969849000135 ], [ 113.555969239000092, 22.16625022900007 ], [ 113.556526185000166, 22.16625022900007 ], [ 113.556526185000166, 22.166530610000109 ], [ 113.557640077000315, 22.166530610000109 ], [ 113.557640077000315, 22.16625022900007 ], [ 113.558197021000069, 22.16625022900007 ], [ 113.558197021000069, 22.165969849000135 ], [ 113.558746339000209, 22.165971756000033 ], [ 113.558746339000209, 22.165693283000167 ], [ 113.559303285000055, 22.165700914000183 ], [ 113.559303285000055, 22.165430069000081 ], [ 113.560691833000078, 22.165430069000081 ], [ 113.560691833000078, 22.164859772000057 ], [ 113.561531067000033, 22.164859772000057 ], [ 113.561531067000033, 22.165140152000163 ], [ 113.562080383000193, 22.165140152000163 ], [ 113.562080383000193, 22.165430069000081 ], [ 113.562362671000074, 22.165430069000081 ], [ 113.562362671000074, 22.165140152000163 ], [ 113.563262940000072, 22.165140152000163 ], [ 113.563232422000056, 22.180397035000169 ], [ 113.563575745000094, 22.180389405000028 ], [ 113.563575745000094, 22.165140152000163 ], [ 113.564582825000116, 22.165140152000163 ], [ 113.564582825000116, 22.164859772000057 ], [ 113.565414429000043, 22.164861679000126 ], [ 113.566562195000074, 22.167066799000111 ], [ 113.56515812300006, 22.167436292000048 ], [ 113.564493037000148, 22.168027481000024 ], [ 113.564419138000176, 22.170613926999977 ], [ 113.568483557000263, 22.169579349000173 ], [ 113.570404919000111, 22.168396974000132 ], [ 113.571355413000219, 22.167665823000164 ], [ 113.571891785000048, 22.168182373000093 ], [ 113.572319030000131, 22.168264389000115 ], [ 113.572692872000289, 22.16977882499998 ], [ 113.574600219000104, 22.169397354000125 ], [ 113.575691223000149, 22.170873641000185 ], [ 113.575927734000061, 22.170444489000033 ], [ 113.57383728100001, 22.167161942000121 ], [ 113.573371887000121, 22.165760041 ], [ 113.576057435000052, 22.16510391300011 ], [ 113.576957702000072, 22.167697907000104 ], [ 113.578163146000293, 22.167518616000109 ], [ 113.577491760000157, 22.164384842000175 ], [ 113.578353882000101, 22.164211274000024 ], [ 113.57897949200003, 22.165924072000166 ], [ 113.579071046000081, 22.165828705000024 ], [ 113.578643799000019, 22.164497375000167 ], [ 113.57883453300019, 22.164306641 ], [ 113.578353882000101, 22.162973404000127 ], [ 113.578407288000108, 22.162618637000151 ], [ 113.580101014000093, 22.163051605000078 ], [ 113.579612732000328, 22.164379120000092 ], [ 113.580642700000112, 22.165826797000022 ], [ 113.580642700000112, 22.16685295100001 ], [ 113.579673767000145, 22.170234681000068 ], [ 113.579734802000303, 22.170354844000144 ], [ 113.581604005000145, 22.165767670000037 ], [ 113.582992555000146, 22.165826797000022 ], [ 113.583839417000036, 22.163896562000104 ], [ 113.578483581000114, 22.162145615000099 ], [ 113.578498840000179, 22.162021637000123 ], [ 113.57883453300019, 22.161451340000099 ], [ 113.579017639000199, 22.161514283000088 ], [ 113.579223633000197, 22.161582946000181 ], [ 113.583007813000108, 22.162870406000138 ], [ 113.583557129000155, 22.163057327000047 ], [ 113.58486175500002, 22.163501741000061 ], [ 113.58486175500002, 22.163749695000149 ], [ 113.584587097000053, 22.163749695000149 ], [ 113.584587097000053, 22.164583206000088 ], [ 113.584297181000011, 22.164579391000188 ], [ 113.584297181000011, 22.165140152000163 ], [ 113.58486175500002, 22.165140152000163 ], [ 113.58486175500002, 22.165430069000081 ], [ 113.585983277000082, 22.165430069000081 ], [ 113.585983277000082, 22.165700914000183 ], [ 113.587638855000137, 22.165700914000183 ], [ 113.587638855000137, 22.165140152000163 ], [ 113.587905883000076, 22.165140152000163 ], [ 113.587905883000076, 22.164302826000153 ], [ 113.588195801000211, 22.164304733000051 ], [ 113.588195801000211, 22.163473129000181 ], [ 113.588470459000064, 22.163473129000181 ], [ 113.588470459000064, 22.162639618000185 ], [ 113.588752747000285, 22.162639618000185 ], [ 113.588752747000285, 22.161809921000042 ], [ 113.589027405000138, 22.161809921000042 ], [ 113.589027405000138, 22.160972595000032 ], [ 113.589302063000105, 22.160972595000032 ], [ 113.589302063000105, 22.160139083000161 ], [ 113.589576721000071, 22.160139083000161 ], [ 113.589576721000071, 22.159299851000185 ], [ 113.589859009000179, 22.159305572000051 ], [ 113.589859009000179, 22.158750533000045 ], [ 113.590141297000059, 22.158750533000045 ], [ 113.590141297000059, 22.15792083700012 ], [ 113.590415955000026, 22.15792083700012 ], [ 113.590415955000026, 22.15735817000018 ], [ 113.590698241000155, 22.15736198500008 ], [ 113.590698241000155, 22.156248093000102 ], [ 113.5909729010001, 22.156248093000102 ], [ 113.5909729010001, 22.155696870000043 ], [ 113.591239929000039, 22.155700683000077 ], [ 113.591239929000039, 22.154859543000157 ], [ 113.591529845000082, 22.154861451000102 ], [ 113.591529845000082, 22.154027939000059 ], [ 113.591796875000114, 22.154029847000061 ], [ 113.591796875000114, 22.153470992999985 ], [ 113.592086791000156, 22.153472901000157 ], [ 113.592086791000156, 22.15319442800012 ], [ 113.592361451000102, 22.153200150000089 ], [ 113.592361451000102, 22.151809693000018 ], [ 113.592636109000068, 22.151809693000018 ], [ 113.592636109000068, 22.15125083900017 ], [ 113.592918395000197, 22.15125083900017 ], [ 113.592918395000197, 22.150690078000025 ], [ 113.593193055000029, 22.150693893000096 ], [ 113.593193055000029, 22.149860382000156 ], [ 113.593482971000185, 22.149860382000156 ], [ 113.593475341000044, 22.149026870000114 ], [ 113.593749999000011, 22.149030685000128 ], [ 113.593749999000011, 22.148471832000155 ], [ 113.59402465900007, 22.148471832000155 ], [ 113.59402465900007, 22.147638320000112 ], [ 113.594306945000085, 22.147640228000114 ], [ 113.594306945000085, 22.146799088000137 ], [ 113.594581603000165, 22.146804810999981 ], [ 113.594581603000165, 22.146251680000148 ], [ 113.594856263000111, 22.146251680000148 ], [ 113.594856263000111, 22.145418168000106 ], [ 113.595138549000012, 22.145418168000106 ], [ 113.595138549000012, 22.144580842000096 ], [ 113.595413207000206, 22.144582749000165 ], [ 113.595413207000206, 22.144029618000161 ], [ 113.595703125000227, 22.144029618000161 ], [ 113.595703125000227, 22.14319038400015 ], [ 113.595970153000053, 22.14319419900005 ], [ 113.595970153000053, 22.142637253000146 ], [ 113.596252441000161, 22.142641067999989 ], [ 113.596252441000161, 22.141809464000119 ], [ 113.596527099000014, 22.141809464000119 ], [ 113.596527099000014, 22.140970230000164 ], [ 113.596801757000094, 22.140972138000109 ], [ 113.596809387000235, 22.140415192000034 ], [ 113.597076415000174, 22.140420914000174 ], [ 113.597076415000174, 22.139579772000047 ], [ 113.597358703000054, 22.139583588000164 ], [ 113.597358703000054, 22.138471603000085 ], [ 113.597640991000162, 22.138471603000085 ], [ 113.597640991000162, 22.137638092000145 ], [ 113.597923279000042, 22.137639999000044 ], [ 113.597923279000042, 22.137081145000138 ], [ 113.598197937, 22.13708305300014 ], [ 113.598197937, 22.13652801500001 ], [ 113.598472595000203, 22.136529922000079 ], [ 113.598472595000203, 22.136249541999973 ], [ 113.598197937, 22.136249541999973 ], [ 113.598197937, 22.135692597000173 ], [ 113.598472595000203, 22.135694505000174 ], [ 113.598472595000203, 22.134862899000098 ], [ 113.59874725300017, 22.134862899000098 ], [ 113.59874725300017, 22.134309768000094 ], [ 113.597366333000309, 22.134309768000094 ], [ 113.597366333000309, 22.134029389000091 ], [ 113.596252441000161, 22.134029389000091 ], [ 113.596252441000161, 22.133752824000169 ], [ 113.594581603000165, 22.133752824000169 ], [ 113.594581603000165, 22.134029389000091 ], [ 113.594306945000085, 22.134027482000192 ], [ 113.594306945000085, 22.134582520000095 ], [ 113.59402465900007, 22.134582520000095 ], [ 113.59402465900007, 22.135139466000169 ], [ 113.593749999000011, 22.135139466000169 ], [ 113.593749999000011, 22.135971070000039 ], [ 113.593475341000044, 22.135971070000039 ], [ 113.593482971000185, 22.136802674000137 ], [ 113.593193055000029, 22.136810303000118 ], [ 113.593193055000029, 22.137639999000044 ], [ 113.592918395000197, 22.137639999000044 ], [ 113.592918395000197, 22.138750076000122 ], [ 113.592636109000068, 22.138750076000122 ], [ 113.592636109000068, 22.139583588000164 ], [ 113.592361451000102, 22.139579772000047 ], [ 113.592361451000102, 22.140140534000068 ], [ 113.592086791000156, 22.140138626000066 ], [ 113.592086791000156, 22.140972138000109 ], [ 113.591796875000114, 22.140970230000164 ], [ 113.591796875000114, 22.141809464000119 ], [ 113.591529845000082, 22.141809464000119 ], [ 113.591529845000082, 22.14236068800011 ], [ 113.591247559000294, 22.14236068800011 ], [ 113.591247559000294, 22.14319419900005 ], [ 113.5909729010001, 22.14319038400015 ], [ 113.5909729010001, 22.143751145000124 ], [ 113.590698241000155, 22.143747330000053 ], [ 113.59069061300022, 22.144582749000165 ], [ 113.590415955000026, 22.144580842000096 ], [ 113.590415955000026, 22.144861222000031 ], [ 113.590141297000059, 22.144861222000031 ], [ 113.590141297000059, 22.145418168000106 ], [ 113.589859009000179, 22.145416261000037 ], [ 113.589859009000179, 22.145694734000074 ], [ 113.589584351000212, 22.145694734000074 ], [ 113.589584351000212, 22.14596939200004 ], [ 113.589302063000105, 22.14596939200004 ], [ 113.589302063000105, 22.146251680000148 ], [ 113.589027405000138, 22.146251680000148 ], [ 113.589027405000138, 22.147083284000018 ], [ 113.589302063000105, 22.14706993100009 ], [ 113.589302063000105, 22.1476993550001 ], [ 113.576820373000146, 22.155509949000134 ], [ 113.576545715000179, 22.155168533000108 ], [ 113.57469177300004, 22.153741836000108 ], [ 113.574218749000011, 22.153026580000073 ], [ 113.574279784000169, 22.152931213000102 ], [ 113.576057435000052, 22.153936387000158 ], [ 113.576957702000072, 22.154056548000028 ], [ 113.577804565000065, 22.153573990000098 ], [ 113.58758545000012, 22.147537232000104 ], [ 113.587760926000215, 22.146511077000014 ], [ 113.587892355, 22.146023490000118 ], [ 113.588278206000041, 22.145576714000072 ], [ 113.588318823000122, 22.145008091000022 ], [ 113.588126244000023, 22.144671077 ], [ 113.587222191000137, 22.144277003000127 ], [ 113.586949140000229, 22.144158679999975 ], [ 113.586201774000187, 22.143834821000098 ], [ 113.586003712000092, 22.143748996 ], [ 113.585008620000053, 22.143403759000137 ], [ 113.582998130000306, 22.143647454000131 ], [ 113.582754433000105, 22.144073924000111 ], [ 113.582307658000218, 22.143505299000026 ], [ 113.581393798000249, 22.143383452000137 ], [ 113.580743943000016, 22.143566223999983 ], [ 113.57895683900017, 22.142814827000109 ], [ 113.577835083000082, 22.142368318000024 ], [ 113.578025817000025, 22.141510010000047 ], [ 113.577072143, 22.139560699000128 ], [ 113.576553345000093, 22.138500214000032 ], [ 113.576889039000093, 22.138471603000085 ], [ 113.577079773000264, 22.138750076000122 ], [ 113.577362061000031, 22.139032364000059 ] ], [ [ 113.579200745000094, 22.161325454000178 ], [ 113.579071046000081, 22.159912110000107 ], [ 113.578346252000188, 22.157075882000129 ], [ 113.577560425000115, 22.155807495000033 ], [ 113.589813232000211, 22.148019790000092 ], [ 113.59036254800003, 22.148864747000061 ], [ 113.585708617000137, 22.162206650000087 ], [ 113.583648681000227, 22.162712097000053 ], [ 113.579200745000094, 22.161325454000178 ] ] ], [ [ [ 113.569584316000146, 22.203679822000026 ], [ 113.569996771000092, 22.201794317000065 ], [ 113.570250935000104, 22.196541568000043 ], [ 113.570589822000215, 22.190272160000177 ], [ 113.570335656000111, 22.189594384000031 ], [ 113.568217613000115, 22.189594384000031 ], [ 113.566607899000019, 22.190102717000116 ], [ 113.564913465000132, 22.191119377 ], [ 113.564998187000015, 22.196033238000098 ], [ 113.564798210000049, 22.19936618800017 ], [ 113.564514112000211, 22.20084410000004 ], [ 113.563151771000207, 22.203337320000117 ], [ 113.562529353000059, 22.20461179300014 ], [ 113.562400918000321, 22.206064099000059 ], [ 113.562282362000133, 22.207378090000134 ], [ 113.562302121000016, 22.208939071000032 ], [ 113.562124287000074, 22.210055470000157 ], [ 113.562324667000098, 22.210483081000064 ], [ 113.562687428000231, 22.210677887000031 ], [ 113.562450315000092, 22.211003915 ], [ 113.561877298000013, 22.211211387000105 ], [ 113.56133391700007, 22.211369461000061 ], [ 113.560731260000011, 22.211468258000139 ], [ 113.560537644000192, 22.211512261000166 ], [ 113.560502085000167, 22.211802670000111 ], [ 113.561226440000155, 22.211747324000157 ], [ 113.56143987400003, 22.211791483000184 ], [ 113.562287090000154, 22.211452595000026 ], [ 113.563134308000031, 22.210774822000133 ], [ 113.56381208300013, 22.210605377000093 ], [ 113.565506517000017, 22.209758161000138 ], [ 113.567878726000231, 22.208487334000097 ], [ 113.56864122200011, 22.207047064999983 ], [ 113.569403717000228, 22.204505413000049 ], [ 113.569545195000046, 22.203858658000058 ], [ 113.570620952000127, 22.203752597000118 ], [ 113.570610188000273, 22.203662517000112 ], [ 113.57060163500023, 22.203594093000106 ], [ 113.569584316000146, 22.203679822000026 ] ] ] ] } }
]
}
